#cP2024  2 18 18  0  0.00000000     577 d+D   IGS20 EXT AIUB
## 2302  64800.00000000   300.00000000 60358 0.7500000000000
+   78   G01G02G03G04G05G06G07G08G09G10G11G12G13G14G15G16G17
+        G18G19G20G21G22G23G24G25G26G27G28G29G30G31G32R01R02
+        R03R04R05R07R08R09R11R12R13R14R15R16R17R18R19R20R21
+        R22R24E02E03E04E05E07E08E09E10E11E12E13E14E15E18E19
+        E21E24E25E26E27E30E31E33E34E36  0  0  0  0  0  0  0
++         6  7  6  8  7  6  7  6  6  6  7  7  8  5  7  7  7
++         7  7  7  7  7  6  6  6  6  6  6  7  5  7  6  9  7
++         8  8  8  8  7  6  6  6  7  6  6  7  8  7  8 10  8
++         7  8  6  6  7  7  7  7  7  7  6  6  7  6  6  7  6
++         6  6  6  7  6  6  6  7  7  7  0  0  0  0  0  0  0
%c M  cc GPS ccc cccc cccc cccc cccc ccccc ccccc ccccc ccccc
%c cc cc ccc ccc cccc cccc cccc cccc ccccc ccccc ccccc ccccc
%f  1.2500000  1.025000000  0.00000000000  0.000000000000000
%f  0.0000000  0.000000000  0.00000000000  0.000000000000000
%i    0    0    0    0      0      0      0      0         0
%i    0    0    0    0      0      0      0      0         0
/* Center for Orbit Determination in Europe (CODE)          
/* Ultra-rapid GRE orbits starting year-day 24049 18 hour   
/* Observed/predicted: 24/24 hours (data used up to 050R)   
/* PCV:IGS20      OL/AL:FES2014b NONE     YN ORB:CoN CLK:BRD
*  2024  2 19 17 55  0.00000000
PG01  10990.856739 -22855.650356  -7637.259959    170.222290
PG02  15009.219053 -21654.655898   2436.725818   -482.914691
PG03  12013.685980 -12358.765907 -20317.793188    203.469190
PG04   4873.578105 -19596.342783 -17166.147517    295.700102
PG05 -22851.150055   6752.190569  11655.046069   -162.415306
PG06 -13890.577301  -5429.391227 -21917.263191    400.661003
PG07    298.895824 -20797.541406  16731.098001    -65.806825
PG08  10645.968190 -12047.050990  20972.786499   -167.823840
PG09  -6447.536798 -24810.586845  -6919.689657     97.615957
PG10  20680.376737  10913.064926  13105.219121      1.018770
PG11 -19617.827748   5918.358524 -16847.712913   -581.250986
PG12 -13374.114936  11781.507894 -19959.000691   -479.572728
PG13 -14870.077965   2007.182511  21724.754100    627.022340
PG14 -17280.982815 -13343.454616  15277.771246    330.004954
PG15  -9314.728260  13409.528971  20425.710503    129.391420
PG16  25873.680797    251.811607   6642.248666   -359.079960
PG17 -12641.934718 -22435.535647  -5738.256829    716.465278
PG18   -328.277002  20041.679538  17344.939108   -559.112192
PG19 -15749.462936 -16103.505347 -14544.404655    442.936167
PG20 -26421.953799   1101.380495  -1143.069442    386.890536
PG21  17034.496648 -18389.184423   7545.492651    134.342716
PG22 -22266.908718 -11024.055051   9390.519163     28.575320
PG23   9056.167195  14475.300411  20418.597771    159.663748
PG24 -15225.434762  21176.399944   3242.844931   -434.351604
PG25  -1010.576527  15566.964113 -21837.631661    489.072336
PG26  26022.716980   4192.860797  -4748.148519    188.478434
PG27  16450.601725   1590.882986  20606.764073     -5.437139
PG28  12743.589435   8301.169059 -21793.617809   -136.563108
PG29   3001.052426  25016.872579  -8287.325284   -606.644530
PG30  -9040.040185 -13782.945936  20913.712753   -430.446528
PG31  18341.972634  -1330.552331 -19512.772356   -227.819050
PG32  15651.016354  19723.388585  -8574.591750   -612.468756
PR01  -3080.586025 -15593.574354 -19948.865385     77.583421
PR02 -15637.943724 -19179.932139  -5993.425658    -22.506509
PR03 -19727.263114 -11520.406138  11337.522238     94.832374
PR04 -12713.163827   1876.487587  22065.323099    224.147110
PR05    944.804584  14525.348518  20969.731404    127.158997
PR07  19631.999547  11070.340933 -11950.955067     76.169884
PR08  12638.784721  -2173.520062 -21991.997207    -74.470043
PR09   8614.009114   8832.001737 -22301.902406    170.904348
PR11  23769.576797  -8745.921295   2966.478001     33.803815
PR12  10682.434547 -12853.919345  19293.004106     36.916717
PR13  -5996.855258  -9635.949303  22822.276177    -44.524698
PR14 -22168.352911    368.936998  12633.244915     26.067998
PR15 -23383.107469   9179.367969  -4431.578206     82.052819
PR16 -10956.938869  12794.061408 -19165.650963     23.400458
PR17 -10107.331719  -3211.190723 -23188.960403     62.591453
PR18 -11926.548885  14028.549020 -17664.011764    128.207138
PR19  -9099.118415  23357.573274  -4731.436548   -266.420509
PR20   1171.651869  20255.942751  15501.460042   -108.537767
PR21  10092.494059   2947.902530  23242.069000    -78.260852
PR22  12543.122802 -14474.895047  16865.367039    108.895718
PR24  -2615.151489 -19878.154217 -15756.125117    -44.578581
PE02   3707.420397 -16446.187253  24318.307157    104.742204
PE03  -1627.632713 -26603.095666 -12887.491880    -94.911201
PE04  14977.677053  24900.117741  -5634.775874   -331.100850
PE05  12477.177729 -12754.151420 -23612.795499   4721.594211
PE07 -19424.049908  -9075.519950  20419.073574   -104.631779
PE08 -14617.665689 -25255.730881   4996.616041   -226.441015
PE09  19316.684744   9229.679028 -20432.699116   -341.944145
PE10  14103.189706   7761.932938  24838.618325   -603.199557
PE11  19791.976945  -2908.976641  21805.017096   3236.724548
PE12   7008.443998  16233.127640  23745.699954   -913.410261
PE13 -19484.605458   2309.570720 -22159.258146    -20.235280
PE14 -14918.903262 -27975.147043  -4650.363592 999999.999999
PE15  -6528.341159 -16586.885646 -23617.409561    -86.722969
PE18   8596.866725  22376.359597    489.212930 999999.999999
PE19   -139.354623  25690.579255  14714.446432   -583.644473
PE21 -22695.106146   8896.694741 -16796.668373   -579.853723
PE24  29229.778290   4586.623839  -1282.402960   -607.279319
PE25  23004.639260  -8651.036404  16498.520118      1.107081
PE26 -20707.249807  19913.464312  -7136.829728    373.521590
PE27 -29279.548568  -4206.507955    870.709441   -278.812045
PE30 -18267.207688 -14839.581154  17923.550747    -13.867333
PE31  18532.812963  14678.070938 -17818.736067    -16.374840
PE33 -10481.056717  25522.815869  10730.655800      7.845941
PE34  10012.599342 -25498.173644 -11214.236225    -95.543492
PE36  20838.063062 -19513.659610   7798.394980   -188.208157
EOF
